{
  "type": "FeatureCollection",
  "name": "nairobi_pluvial_flood_extent",
  "features": [
    {
      "type": "Feature",
      "properties": {
        "overlay": "flood_hazard_extent",
        "name": "nairobi_sample_pluvial",
        "water_surface_elevation_m": 2.5,
        "style": {
          "color": "#1D4E89",
          "fillColor": "#4C8DDE",
          "fillOpacity": 0.18,
          "weight": 2
        }
      },
      "geometry": {
        "type": "Polygon",
        "coordinates": [[
          [36.78, -1.32],
          [36.86, -1.32],
          [36.86, -1.26],
          [36.78, -1.26],
          [36.78, -1.32]
        ]]
      }
    }
  ]
}
